STARLINK-4420           
1 53654U 22105G   26162.64432728 -.00000215  00000+0 -10933-4 0  9995
2 53654  97.3729  42.9702 0001493  84.6242 275.5156 15.05649786207437
STARLINK-4470           
1 53655U 22105H   26162.83335647  .00878091  00000+0  10889-1 0  9999
2 53655  97.6028  46.9714 0001464  85.0220   2.2170 15.57508652  5901
STARLINK-4466           
1 53656U 22105J   26162.62913645 -.00000096  00000+0 -26531-5 0  9996
2 53656  97.3742  41.9177 0002345  66.4041 293.7432 15.05655491207362
STARLINK-4452           
1 53658U 22105L   26162.66925745  .00000658  00000+0  49555-4 0  9998
2 53658  97.3746  43.0850 0002349  93.3119 266.8377 15.05650790207443
STARLINK-4473           
1 53660U 22105N   26162.62083198  .00000571  00000+0  43548-4 0  9994
2 53660  97.3736  41.9179 0002785  70.4714 289.6814 15.05658509207363
STARLINK-4472           
1 53661U 22105P   26162.65130389  .00002160  00000+0  15363-3 0  9992
2 53661  97.3725  41.8841 0002858  93.2941 266.8613 15.05646053207368
STARLINK-4357           
1 53662U 22105Q   26162.83335647  .00092164  00000+0  15265-2 0  9990
2 53662  97.6018  46.4875 0001891  78.6222  58.3955 15.51845923  5749
STARLINK-4457           
1 53663U 22105R   26162.66649093 -.00000818  00000+0 -52693-4 0  9990
2 53663  97.3765  43.0739 0003077  97.3166 262.8411 15.05657702207446
STARLINK-4471           
1 53664U 22105S   26162.83335647 -.00047684  00000+0 -33207-2 0  9997
2 53664  97.3735  43.1499 0002195  83.1430 295.9521 15.05674559  5685
STARLINK-4334           
1 53665U 22105T   26162.83335647  .00108505  00000+0  20346-2 0  9996
2 53665  97.6035  46.7510 0001352  65.4222 298.6473 15.48251542  5890
STARLINK-4406           
1 53667U 22105V   26162.83335647  .00007095  00000+0  22779-3 0  9993
2 53667  97.6024  46.2928 0001290  71.9017 325.2534 15.32625253  5840
STARLINK-4458           
1 53668U 22105W   26162.83335647  .00601481  00000+0  86263-2 0  9990
2 53668  97.6031  46.8528 0001164  89.5161 272.3475 15.54027661  5890
STARLINK-4464           
1 53669U 22105X   26162.83335647  .00084690  00000+0  16928-2 0  9999
2 53669  97.6025  45.4392 0002068  79.3919 111.4961 15.46492823  5890
STARLINK-4459           
1 53670U 22105Y   26162.65543315  .00000185  00000+0  16842-4 0  9998
2 53670  97.3733  43.0580 0003483  80.3698 279.7923 15.05634181207447
STARLINK-4440           
1 53671U 22105Z   26162.64299015 -.00001804  00000+0 -12113-3 0  9990
2 53671  97.3715  41.8597 0002167  78.8312 281.3158 15.05637766207367
STARLINK-4428           
1 53672U 22105AA  26162.61252155 -.00000753  00000+0 -48191-4 0  9990
2 53672  97.3737  41.8893 0003170  79.7038 280.4546 15.05659756207365
STARLINK-4456           
1 53673U 22105AB  26162.83335647  .00419151  00000+0  13850-1 0  9998
2 53673  97.6042  44.8902 0001956  92.7657 176.5115 15.29551147  5841
STARLINK-4620           
1 53674U 22105AC  26162.61805784  .00000534  00000+0  40978-4 0  9994
2 53674  97.3752  41.8794 0002239  97.9276 262.2206 15.05650317207360
STARLINK-4617           
1 53675U 22105AD  26162.63603032 -.00001984  00000+0 -13355-3 0  9999
2 53675  97.3750  43.0683 0002386  76.3921 283.7572 15.05658919207440
STARLINK-4621           
1 53676U 22105AE  26162.66513541  .00000704  00000+0  52807-4 0  9991
2 53676  97.3743  41.9570 0002416  85.2142 274.9362 15.05649809207372
STARLINK-4579           
1 53677U 22105AF  26162.66094941 -.00001213  00000+0 -80096-4 0  9999
2 53677  97.3729  43.0423 0002797  87.0773 273.0775 15.05654664207440
STARLINK-4632           
1 53679U 22105AH  26162.62772434  .00000461  00000+0  35905-4 0  9998
2 53679  97.3736  43.0786 0002887  69.0299 291.1237 15.05657425207447
STARLINK-4630           
1 53680U 22105AJ  26162.65818970 -.00000252  00000+0 -13477-4 0  9999
2 53680  97.3735  43.0219 0002310  89.3516 270.7976 15.05645656207443
STARLINK-4424           
1 53681U 22105AK  26162.83335647  .00474523  00000+0  61654-2 0  9997
2 53681  97.6030  46.1630 0001716  93.2838  50.9151 15.57180456  5860
STARLINK-4438           
1 53682U 22105AL  26162.67755817 -.00001257  00000+0 -83114-4 0  9994
2 53682  97.3724  42.9893 0003686  77.8459 282.3181 15.05660997207446
STARLINK-4625           
1 53683U 22105AM  26162.65683142 -.00000580  00000+0 -36233-4 0  9992
2 53683  97.3750  41.9609 0002161  92.9815 267.1659 15.05646643207376
STARLINK-4624           
1 53684U 22105AN  26162.65959567  .00000310  00000+0  25453-4 0  9991
2 53684  97.3724  41.9140 0002697  76.6354 283.5174 15.05647669207349
STARLINK-4626           
1 53685U 22105AP  26162.63190465  .00002719  00000+0  19239-3 0  9993
2 53685  97.3742  41.8310 0003439  66.8485 293.3104 15.05640709207361
STARLINK-4467           
1 53686U 22105AQ  26162.62357475  .00033514  00000+0  23117-2 0  9995
2 53686  97.3838  41.8350 0000891 125.7485 234.3825 15.05717867207361
STARLINK-4569           
1 53687U 22105AR  26162.60832933  .00000836  00000+0  61933-4 0  9992
2 53687  97.3735  42.9264 0002442  87.3932 272.7575 15.05651843207435
