OBJECT_NAME,OBJECT_ID,EPOCH,MEAN_MOTION,ECCENTRICITY,INCLINATION,RA_OF_ASC_NODE,ARG_OF_PERICENTER,MEAN_ANOMALY,EPHEMERIS_TYPE,CLASSIFICATION_TYPE,NORAD_CAT_ID,ELEMENT_SET_NO,REV_AT_EPOCH,BSTAR,MEAN_MOTION_DOT,MEAN_MOTION_DDOT
STARLINK-4420,2022-105G,2026-06-11T15:27:49.876992,15.05649786,.0001493,97.3729,42.9702,84.6242,275.5156,0,U,53654,999,20743,-.10933E-4,-.215E-5,0
STARLINK-4470,2022-105H,2026-06-11T20:00:01.999008,15.57508652,.0001464,97.6028,46.9714,85.0220,2.2170,0,U,53655,999,590,.10889E-1,.878091E-2,0
STARLINK-4466,2022-105J,2026-06-11T15:05:57.389280,15.05655491,.0002345,97.3742,41.9177,66.4041,293.7432,0,U,53656,999,20736,-.26531E-5,-.96E-6,0
STARLINK-4452,2022-105L,2026-06-11T16:03:43.843680,15.05650790,.0002349,97.3746,43.0850,93.3119,266.8377,0,U,53658,999,20744,.49555E-4,.658E-5,0
STARLINK-4473,2022-105N,2026-06-11T14:53:59.883072,15.05658509,.0002785,97.3736,41.9179,70.4714,289.6814,0,U,53660,999,20736,.43548E-4,.571E-5,0
STARLINK-4472,2022-105P,2026-06-11T15:37:52.656096,15.05646053,.0002858,97.3725,41.8841,93.2941,266.8613,0,U,53661,999,20736,.15363E-3,.216E-4,0
STARLINK-4357,2022-105Q,2026-06-11T20:00:01.999008,15.51845923,.0001891,97.6018,46.4875,78.6222,58.3955,0,U,53662,999,574,.15265E-2,.92164E-3,0
STARLINK-4457,2022-105R,2026-06-11T15:59:44.816352,15.05657702,.0003077,97.3765,43.0739,97.3166,262.8411,0,U,53663,999,20744,-.52693E-4,-.818E-5,0
STARLINK-4471,2022-105S,2026-06-11T20:00:01.999008,15.05674559,.0002195,97.3735,43.1499,83.1430,295.9521,0,U,53664,999,568,-.33207E-2,-.47684E-3,0
STARLINK-4334,2022-105T,2026-06-11T20:00:01.999008,15.48251542,.0001352,97.6035,46.7510,65.4222,298.6473,0,U,53665,999,589,.20346E-2,.108505E-2,0
STARLINK-4406,2022-105V,2026-06-11T20:00:01.999008,15.32625253,.000129,97.6024,46.2928,71.9017,325.2534,0,U,53667,999,584,.22779E-3,.7095E-4,0
STARLINK-4458,2022-105W,2026-06-11T20:00:01.999008,15.54027661,.0001164,97.6031,46.8528,89.5161,272.3475,0,U,53668,999,589,.86263E-2,.601481E-2,0
STARLINK-4464,2022-105X,2026-06-11T20:00:01.999008,15.46492823,.0002068,97.6025,45.4392,79.3919,111.4961,0,U,53669,999,589,.16928E-2,.8469E-3,0
STARLINK-4459,2022-105Y,2026-06-11T15:43:49.424160,15.05634181,.0003483,97.3733,43.0580,80.3698,279.7923,0,U,53670,999,20744,.16842E-4,.185E-5,0
STARLINK-4440,2022-105Z,2026-06-11T15:25:54.348960,15.05637766,.0002167,97.3715,41.8597,78.8312,281.3158,0,U,53671,999,20736,-.12113E-3,-.1804E-4,0
STARLINK-4428,2022-105AA,2026-06-11T14:42:01.861920,15.05659756,.000317,97.3737,41.8893,79.7038,280.4546,0,U,53672,999,20736,-.48191E-4,-.753E-5,0
STARLINK-4456,2022-105AB,2026-06-11T20:00:01.999008,15.29551147,.0001956,97.6042,44.8902,92.7657,176.5115,0,U,53673,999,584,.1385E-1,.419151E-2,0
STARLINK-4620,2022-105AC,2026-06-11T14:50:00.197376,15.05650317,.0002239,97.3752,41.8794,97.9276,262.2206,0,U,53674,999,20736,.40978E-4,.534E-5,0
STARLINK-4617,2022-105AD,2026-06-11T15:15:53.019648,15.05658919,.0002386,97.3750,43.0683,76.3921,283.7572,0,U,53675,999,20744,-.13355E-3,-.1984E-4,0
STARLINK-4621,2022-105AE,2026-06-11T15:57:47.699424,15.05649809,.0002416,97.3743,41.9570,85.2142,274.9362,0,U,53676,999,20737,.52807E-4,.704E-5,0
STARLINK-4579,2022-105AF,2026-06-11T15:51:46.029024,15.05654664,.0002797,97.3729,43.0423,87.0773,273.0775,0,U,53677,999,20744,-.80096E-4,-.1213E-4,0
STARLINK-4632,2022-105AH,2026-06-11T15:03:55.382976,15.05657425,.0002887,97.3736,43.0786,69.0299,291.1237,0,U,53679,999,20744,.35905E-4,.461E-5,0
STARLINK-4630,2022-105AJ,2026-06-11T15:47:47.590080,15.05645656,.000231,97.3735,43.0219,89.3516,270.7976,0,U,53680,999,20744,-.13477E-4,-.252E-5,0
STARLINK-4424,2022-105AK,2026-06-11T20:00:01.999008,15.57180456,.0001716,97.6030,46.1630,93.2838,50.9151,0,U,53681,999,586,.61654E-2,.474523E-2,0
STARLINK-4438,2022-105AL,2026-06-11T16:15:41.025888,15.05660997,.0003686,97.3724,42.9893,77.8459,282.3181,0,U,53682,999,20744,-.83114E-4,-.1257E-4,0
STARLINK-4625,2022-105AM,2026-06-11T15:45:50.234688,15.05646643,.0002161,97.3750,41.9609,92.9815,267.1659,0,U,53683,999,20737,-.36233E-4,-.58E-5,0
STARLINK-4624,2022-105AN,2026-06-11T15:49:49.065888,15.05647669,.0002697,97.3724,41.9140,76.6354,283.5174,0,U,53684,999,20734,.25453E-4,.31E-5,0
STARLINK-4626,2022-105AP,2026-06-11T15:09:56.561760,15.05640709,.0003439,97.3742,41.8310,66.8485,293.3104,0,U,53685,999,20736,.19239E-3,.2719E-4,0
STARLINK-4467,2022-105AQ,2026-06-11T14:57:56.858400,15.05717867,.0000891,97.3838,41.8350,125.7485,234.3825,0,U,53686,999,20736,.23117E-2,.33514E-3,0
STARLINK-4569,2022-105AR,2026-06-11T14:35:59.654112,15.05651843,.0002442,97.3735,42.9264,87.3932,272.7575,0,U,53687,999,20743,.61933E-4,.836E-5,0
